NORAD_CAT_ID,OBJECT_NAME,OBJECT_TYPE,EPOCH,MEAN_MOTION,ECCENTRICITY,INCLINATION,RA_OF_ASC_NODE,ARG_OF_PERICENTER,MEAN_ANOMALY,BSTAR,MEAN_MOTION_DOT,MEAN_MOTION_DDOT,TLE_LINE0,TLE_LINE1,TLE_LINE2,SEMIMAJOR_AXIS,PERIOD,APOGEE,PERIGEE,DECAYED
52647.0,STARLINK-3846,PAYLOAD,2024-04-16 09:00:26,15.08844264,0.0001807,53.2159,127.1452,83.7394,276.3804,8.4449e-05,1.056e-05,0.0,0 STARLINK-3846,1 52647U 22052BB  24107.37531050  .00001056  00000-0  84449-4 0  9998,2 52647  53.2159 127.1452 0001807  83.7394 276.3804 15.08844264106620,6917.867,95.437,540.982,538.482,0.0
52647.0,STARLINK-3846,PAYLOAD,2024-04-17 00:54:18,15.08844168,0.0001788,53.2162,124.1723,94.9856,265.134,7.0159e-05,8.29e-06,0.0,0 STARLINK-3846,1 52647U 22052BB  24108.03771055  .00000829  00000-0  70159-4 0  9993,2 52647  53.2162 124.1723 0001788  94.9856 265.1340 15.08844168107093,6917.868,95.437,540.97,538.496,0.0
52647.0,STARLINK-3846,PAYLOAD,2024-04-17 10:26:37,15.08836972,0.0001781,53.2165,122.3865,91.3041,268.8155,-6.2397e-06,-3.87e-06,0.0,0 STARLINK-3846,1 52647U 22052BB  24108.43515568 -.00000387  00000-0 -62397-5 0  9999,2 52647  53.2165 122.3865 0001781  91.3041 268.8155 15.08836972107158,6917.89,95.438,540.987,538.523,0.0
52647.0,STARLINK-3846,PAYLOAD,2024-04-18 07:06:38,15.08834665,0.0001618,53.2165,118.5189,101.6623,258.4551,1.2615e-05,-8.7e-07,0.0,0 STARLINK-3846,1 52647U 22052BB  24109.29628004 -.00000087  00000-0  12615-4 0  9997,2 52647  53.2165 118.5189 0001618 101.6623 258.4551 15.08834665106919,6917.897,95.438,540.881,538.642,0.0
52647.0,STARLINK-3846,PAYLOAD,2024-04-19 03:46:38,15.08840434,0.0001508,53.2159,114.6523,104.8201,255.2959,0.00015131,2.121e-05,0.0,0 STARLINK-3846,1 52647U 22052BB  24110.15739458  .00002121  00000-0  15131-3 0  9995,2 52647  53.2159 114.6523 0001508 104.8201 255.2959 15.08840434107410,6917.879,95.438,540.787,538.701,0.0
52647.0,STARLINK-3846,PAYLOAD,2024-04-19 06:57:25,15.08843753,0.0001585,53.2165,114.0582,102.694,257.4229,0.00018133,2.599e-05,0.0,0 STARLINK-3846,1 52647U 22052BB  24110.28987276  .00002599  00000-0  18133-3 0  9996,2 52647  53.2165 114.0582 0001585 102.6940 257.4229 15.08843753107069,6917.869,95.437,540.83,538.637,0.0
52647.0,STARLINK-3846,PAYLOAD,2024-04-20 06:48:11,15.08854374,0.0001611,53.216,109.5985,97.4597,262.6578,0.00027229,4.05e-05,0.0,0 STARLINK-3846,1 52647U 22052BB  24111.28346827  .00004050  00000-0  27229-3 0  9998,2 52647  53.2160 109.5985 0001611  97.4597 262.6578 15.08854374107582,6917.836,95.437,540.816,538.587,0.0
52647.0,STARLINK-3846,PAYLOAD,2024-04-21 03:28:13,15.08820275,0.0001455,53.216,105.7327,102.2193,257.8962,-0.00036159,-6.035e-05,0.0,0 STARLINK-3846,1 52647U 22052BB  24112.14460295 -.00006035  00000-0 -36159-3 0  9999,2 52647  53.2160 105.7327 0001455 102.2193 257.8962 15.08820275107714,6917.941,95.439,540.812,538.799,0.0
52647.0,STARLINK-3846,PAYLOAD,2024-04-21 09:49:46,15.08821448,0.0001448,53.2163,104.544,109.6871,250.4278,-0.00029848,-5.033e-05,0.0,0 STARLINK-3846,1 52647U 22052BB  24112.40956476 -.00005033  00000-0 -29848-3 0  9993,2 52647  53.2163 104.5440 0001448 109.6871 250.4278 15.08821448107381,6917.937,95.439,540.804,538.8,0.0
52647.0,STARLINK-3846,PAYLOAD,2024-04-22 04:54:23,15.0883697,0.000133,53.2161,100.979,104.6883,255.4256,0.00015203,2.132e-05,0.0,0 STARLINK-3846,1 52647U 22052BB  24113.20444147  .00002132  00000-0  15203-3 0  9994,2 52647  53.2161 100.9790 0001330 104.6883 255.4256 15.08836970107876,6917.89,95.438,540.675,538.835,0.0
52647.0,STARLINK-3846,PAYLOAD,2024-04-22 09:40:33,15.08851271,0.0001308,53.2159,100.0845,111.1675,248.9457,0.0011096,0.00017421,0.0,0 STARLINK-3846,1 52647U 22052BB  24113.40316276  .00017421  00000-0  11096-2 0  9999,2 52647  53.2159 100.0845 0001308 111.1675 248.9457 15.08851271107536,6917.846,95.437,540.616,538.806,0.0
52647.0,STARLINK-3846,PAYLOAD,2024-04-23 04:45:10,15.0884588,0.0001575,53.2176,96.5128,107.6683,252.4481,0.00022629,3.316e-05,0.0,0 STARLINK-3846,1 52647U 22052BB  24114.19804193  .00003316  00000-0  22629-3 0  9999,2 52647  53.2176  96.5128 0001575 107.6683 252.4481 15.08845880108024,6917.862,95.437,540.817,538.638,0.0
52647.0,STARLINK-3846,PAYLOAD,2024-04-23 06:20:33,15.08841951,0.0001314,53.2163,96.2164,105.3796,254.7342,3.2168e-05,2.24e-06,0.0,0 STARLINK-3846,1 52647U 22052BB  24114.26428223  .00000224  00000-0  32168-4 0  9998,2 52647  53.2163  96.2164 0001314 105.3796 254.7342 15.08841951107663,6917.874,95.437,540.648,538.83,0.0
52647.0,STARLINK-3846,PAYLOAD,2024-04-23 22:14:25,15.08840506,0.0001346,53.2165,93.2426,112.7645,247.349,6.0887e-05,6.81e-06,0.0,0 STARLINK-3846,1 52647U 22052BB  24114.92668271  .00000681  00000-0  60887-4 0  9996,2 52647  53.2165  93.2426 0001346 112.7645 247.3490 15.08840506107761,6917.879,95.438,540.675,538.813,0.0
52647.0,STARLINK-3846,PAYLOAD,2024-04-24 03:00:34,15.08843272,0.0001361,53.2174,92.354,81.3733,278.7413,5.7795e-05,6.32e-06,0.0,0 STARLINK-3846,1 52647U 22052BB  24115.12540438  .00000632  00000-0  57795-4 0  9993,2 52647  53.2174  92.3540 0001361  81.3733 278.7413 15.08843272108165,6917.87,95.437,540.677,538.794,0.0
52647.0,STARLINK-3846,PAYLOAD,2024-04-24 07:46:43,15.08846633,0.0001366,53.216,91.4604,96.2714,263.8434,8.3672e-05,1.044e-05,0.0,0 STARLINK-3846,1 52647U 22052BB  24115.32412032  .00001044  00000-0  83672-4 0  9994,2 52647  53.2160  91.4604 0001366  96.2714 263.8434 15.08846633107824,6917.86,95.437,540.67,538.78,0.0
52647.0,STARLINK-3846,PAYLOAD,2024-04-24 22:05:12,15.08846126,0.0001432,53.2167,88.7845,102.0449,258.0703,0.00016751,2.379e-05,0.0,0 STARLINK-3846,1 52647U 22052BB  24115.92028056  .00002379  00000-0  16751-3 0  9994,2 52647  53.2167  88.7845 0001432 102.0449 258.0703 15.08846126107914,6917.862,95.437,540.717,538.736,0.0
52647.0,STARLINK-3846,PAYLOAD,2024-04-25 04:26:45,15.08839323,0.0001373,53.2167,87.5967,67.2192,292.8945,7.6858e-05,9.35e-06,0.0,0 STARLINK-3846,1 52647U 22052BB  24116.18524528  .00000935  00000-0  76858-4 0  9999,2 52647  53.2167  87.5967 0001373  67.2192 292.8945 15.08839323108328,6917.882,95.438,540.697,538.798,0.0
52647.0,STARLINK-3846,PAYLOAD,2024-04-25 07:37:31,15.08843068,0.0001241,53.2155,86.9996,89.744,270.3694,0.00011978,1.619e-05,0.0,0 STARLINK-3846,1 52647U 22052BB  24116.31772164  .00001619  00000-0  11978-3 0  9996,2 52647  53.2155  86.9996 0001241  89.7440 270.3694 15.08843068107972,6917.871,95.437,540.595,538.878,0.0
52647.0,STARLINK-3846,PAYLOAD,2024-04-26 07:28:18,15.08843075,0.0001414,53.216,82.5382,96.485,263.6303,8.9196e-05,1.132e-05,0.0,0 STARLINK-3846,1 52647U 22052BB  24117.31132177  .00001132  00000-0  89196-4 0  9999,2 52647  53.2160  82.5382 0001414  96.4850 263.6303 15.08843075108499,6917.871,95.437,540.714,538.758,0.0
52647.0,STARLINK-3846,PAYLOAD,2024-04-27 04:08:20,15.08813978,0.0001539,53.2162,78.6722,80.9296,279.1871,0.0010124,0.0001585,0.0,0 STARLINK-3846,1 52647U 22052BB  24118.17245951  .00015850  00000-0  10124-2 0  9994,2 52647  53.2162  78.6722 0001539  80.9296 279.1871 15.08813978108621,6917.96,95.439,540.89,538.76,0.0
52647.0,STARLINK-3846,PAYLOAD,2024-04-27 21:37:33,15.08839399,0.0001253,53.2158,75.4078,91.4668,268.6468,-1.5368e-06,-3.12e-06,0.0,0 STARLINK-3846,1 52647U 22052BB  24118.90108432 -.00000312  00000-0 -15368-5 0  9994,2 52647  53.2158  75.4078 0001253  91.4668 268.6468 15.08839399108369,6917.882,95.438,540.614,538.88,0.0
52647.0,STARLINK-3846,PAYLOAD,2024-04-28 07:09:53,15.08826584,0.0001148,53.2173,73.6183,96.2344,263.8779,-4.0426e-05,-9.31e-06,0.0,0 STARLINK-3846,1 52647U 22052BB  24119.29853773 -.00000931  00000-0 -40426-4 0  9991,2 52647  53.2173  73.6183 0001148  96.2344 263.8779 15.08826584108791,6917.921,95.438,540.581,538.992,0.0
52647.0,STARLINK-3846,PAYLOAD,2024-04-28 13:31:25,15.08831103,0.0001335,53.2186,72.432,110.6483,249.4652,8.1121e-06,-1.59e-06,0.0,0 STARLINK-3846,1 52647U 22052BB  24119.56349419 -.00000159  00000-0  81121-5 0  9997,2 52647  53.2186  72.4320 0001335 110.6483 249.4652 15.08831103108465,6917.908,95.438,540.696,538.849,0.0
52647.0,STARLINK-3846,PAYLOAD,2024-04-28 21:28:21,15.08831026,0.0001205,53.2187,70.9455,105.1358,254.9767,2.9028e-06,-2.42e-06,0.0,0 STARLINK-3846,1 52647U 22052BB  24119.89469677 -.00000242  00000-0  29028-5 0  9993,2 52647  53.2187  70.9455 0001205 105.1358 254.9767 15.08831026108512,6917.908,95.438,540.606,538.939,0.0
52647.0,STARLINK-3846,PAYLOAD,2024-04-29 03:49:53,15.08838601,0.0001256,53.219,69.7567,107.2293,252.8837,6.3751e-05,7.27e-06,0.0,0 STARLINK-3846,1 52647U 22052BB  24120.15965169  .00000727  00000-0  63751-4 0  9998,2 52647  53.2190  69.7567 0001256 107.2293 252.8837 15.08838601108929,6917.885,95.438,540.619,538.881,0.0
52647.0,STARLINK-3846,PAYLOAD,2024-04-29 13:22:11,15.08851783,0.0001277,53.2193,67.9707,100.0312,260.0824,0.0001143,1.532e-05,0.0,0 STARLINK-3846,1 52647U 22052BB  24120.55708130  .00001532  00000-0  11430-3 0  9996,2 52647  53.2193  67.9707 0001277 100.0312 260.0824 15.08851783108613,6917.844,95.437,540.593,538.826,0.0
52647.0,STARLINK-3846,PAYLOAD,2024-04-29 19:43:45,15.0883599,0.0001948,53.2189,66.7829,98.5478,261.5734,0.00027236,4.049e-05,0.0,0 STARLINK-3846,1 52647U 22052BB  24120.82205071  .00004049  00000-0  27236-3 0  9999,2 52647  53.2189  66.7829 0001948  98.5478 261.5734 15.08835990108651,6917.893,95.438,541.105,538.41,0.0
52647.0,STARLINK-3846,PAYLOAD,2024-04-30 05:16:04,15.08834266,0.0001429,53.2192,64.9988,106.3431,253.7719,0.00020856,3.032e-05,0.0,0 STARLINK-3846,1 52647U 22052BB  24121.21949455  .00003032  00000-0  20856-3 0  9996,2 52647  53.2192  64.9988 0001429 106.3431 253.7719 15.08834266109081,6917.898,95.438,540.751,538.774,0.0
52647.0,STARLINK-3846,PAYLOAD,2024-04-30 13:12:59,15.08843867,0.000108,53.2182,63.5101,98.8951,261.2164,0.00024293,3.581e-05,0.0,0 STARLINK-3846,1 52647U 22052BB  24121.55068728  .00003581  00000-0  24293-3 0  9996,2 52647  53.2182  63.5101 0001080  98.8951 261.2164 15.08843867108766,6917.869,95.437,540.481,538.986,0.0
